NORAD_CAT_ID,OBJECT_NAME,OBJECT_TYPE,EPOCH,MEAN_MOTION,ECCENTRICITY,INCLINATION,RA_OF_ASC_NODE,ARG_OF_PERICENTER,MEAN_ANOMALY,BSTAR,MEAN_MOTION_DOT,MEAN_MOTION_DDOT,TLE_LINE0,TLE_LINE1,TLE_LINE2,SEMIMAJOR_AXIS,PERIOD,APOGEE,PERIGEE,DECAYED
51799.0,STARLINK-3637,PAYLOAD,2022-12-22 07:31:01,15.08838748,0.0003221,53.2157,216.6276,27.9988,332.1176,-6.3458e-05,-1.299e-05,0.0,0 STARLINK-3637,1 51799U 22017AH  22356.31321506 -.00001299  00000-0 -63458-4 0  9995,2 51799  53.2157 216.6276 0003221  27.9988 332.1176 15.08838748 46787,6917.884,95.438,541.977,537.521,0.0
51799.0,STARLINK-3637,PAYLOAD,2022-12-22 13:52:36,15.08801869,0.0003316,53.2155,215.4397,34.7709,325.3499,0.00044677,6.822e-05,0.0,0 STARLINK-3637,1 51799U 22017AH  22356.57819482  .00006822  00000-0  44677-3 0  9994,2 51799  53.2155 215.4397 0003316  34.7709 325.3499 15.08801869 46829,6917.996999999999,95.44,542.156,537.568,0.0
51799.0,STARLINK-3637,PAYLOAD,2022-12-23 01:00:16,15.08832334,0.0003378,53.215,213.3568,27.2293,332.8876,1.3745e-05,-7e-07,0.0,0 STARLINK-3637,1 51799U 22017AH  22357.04186325 -.00000070  00000-0  13745-4 0  9993,2 51799  53.2150 213.3568 0003378  27.2293 332.8876 15.08832334 46894,6917.904,95.438,542.106,537.432,0.0
51799.0,STARLINK-3637,PAYLOAD,2022-12-23 07:21:49,15.08832965,0.0002964,53.2148,212.1674,31.024,329.0926,6.0482e-05,6.74e-06,0.0,0 STARLINK-3637,1 51799U 22017AH  22357.30682210  .00000674  00000-0  60482-4 0  9995,2 51799  53.2148 212.1674 0002964  31.0240 329.0926 15.08832965 46930,6917.901999999999,95.438,541.817,537.716,0.0
51799.0,STARLINK-3637,PAYLOAD,2022-12-23 16:54:08,15.08842958,0.0003068,53.2147,210.3832,31.3824,328.7351,-7.3867999999999985e-06,-4.06e-06,0.0,0 STARLINK-3637,1 51799U 22017AH  22357.70426090 -.00000406  00000-0 -73868-5 0  9999,2 51799  53.2147 210.3832 0003068  31.3824 328.7351 15.08842958 46999,6917.871,95.437,541.859,537.614,0.0
51799.0,STARLINK-3637,PAYLOAD,2022-12-24 07:12:36,15.0884247,0.0003214,53.2144,207.7071,34.549,325.5711,0.0001403,1.945e-05,0.0,0 STARLINK-3637,1 51799U 22017AH  22358.30041769  .00001945  00000-0  14030-3 0  9993,2 51799  53.2144 207.7071 0003214  34.5490 325.5711 15.08842470 47083,6917.873000000001,95.437,541.961,537.514,0.0
51799.0,STARLINK-3637,PAYLOAD,2022-12-24 18:20:17,15.08845318,0.000317,53.2145,205.6248,35.8903,324.2302,0.00022231,3.252e-05,0.0,0 STARLINK-3637,1 51799U 22017AH  22358.76409465  .00003252  00000-0  22231-3 0  9999,2 51799  53.2145 205.6248 0003170  35.8903 324.2302 15.08845318 47155,6917.864000000001,95.437,541.922,537.536,0.0
51799.0,STARLINK-3637,PAYLOAD,2022-12-24 19:55:40,15.0884686,0.0003172,53.2145,205.3274,35.9028,324.2177,0.00022087,3.229e-05,0.0,0 STARLINK-3637,1 51799U 22017AH  22358.83033423  .00003229  00000-0  22087-3 0  9997,2 51799  53.2145 205.3274 0003172  35.9028 324.2177 15.08846860 47166,6917.859,95.437,541.919,537.53,0.0
51799.0,STARLINK-3637,PAYLOAD,2022-12-25 07:03:23,15.08843426,0.0003278,53.213,203.2457,36.782,323.3397,9.1426e-05,1.167e-05,0.0,0 STARLINK-3637,1 51799U 22017AH  22359.29401662  .00001167  00000-0  91426-4 0  9995,2 51799  53.2130 203.2457 0003278  36.7820 323.3397 15.08843426 47233,6917.87,95.437,542.003,537.467,0.0
51799.0,STARLINK-3637,PAYLOAD,2022-12-25 19:46:28,15.08844221,0.0003323,53.2132,200.867,38.4179,321.7049,5.455399999999999e-05,5.8e-06,0.0,0 STARLINK-3637,1 51799U 22017AH  22359.82393537  .00000580  00000-0  54554-4 0  9994,2 51799  53.2132 200.8670 0003323  38.4179 321.7049 15.08844221 47311,6917.8669999999975,95.437,542.031,537.434,0.0
51799.0,STARLINK-3637,PAYLOAD,2022-12-26 13:15:42,15.08849729,0.0003275,53.2146,197.5955,39.4101,320.7129,6.5096e-05,7.48e-06,0.0,0 STARLINK-3637,1 51799U 22017AH  22360.55257158  .00000748  00000-0  65096-4 0  9993,2 51799  53.2146 197.5955 0003275  39.4101 320.7129 15.08849729 47424,6917.851,95.437,541.981,537.45,0.0
51799.0,STARLINK-3637,PAYLOAD,2022-12-26 16:26:28,15.08851325,0.0003287,53.2145,197.0008,39.8152,320.3081,7.0086e-05,8.27e-06,0.0,0 STARLINK-3637,1 51799U 22017AH  22360.68504973  .00000827  00000-0  70086-4 0  9990,2 51799  53.2145 197.0008 0003287  39.8152 320.3081 15.08851325 47440,6917.846,95.437,541.985,537.437,0.0
51799.0,STARLINK-3637,PAYLOAD,2022-12-26 19:37:14,15.08850697,0.0003393,53.2148,196.4064,30.8149,329.3041,6.566100000000001e-05,7.57e-06,0.0,0 STARLINK-3637,1 51799U 22017AH  22360.81752995  .00000757  00000-0  65661-4 0  9999,2 51799  53.2148 196.4064 0003393  30.8149 329.3041 15.08850697 47461,6917.848000000001,95.437,542.06,537.365,0.0
51799.0,STARLINK-3637,PAYLOAD,2022-12-27 00:23:24,15.08841284,0.0003193,53.2142,195.5134,39.6666,320.456,-4.986600000000002e-05,-1.082e-05,0.0,0 STARLINK-3637,1 51799U 22017AH  22361.01625744 -.00001082  00000-0 -49866-4 0  9996,2 51799  53.2142 195.5134 0003193  39.6666 320.4560 15.08841284 47495,6917.876,95.437,541.95,537.533,0.0
51799.0,STARLINK-3637,PAYLOAD,2022-12-27 13:06:29,15.08836471,0.0003251,53.2144,193.1348,40.0144,320.1087,6.0224e-05,6.7e-06,0.0,0 STARLINK-3637,1 51799U 22017AH  22361.54617893  .00000670  00000-0  60224-4 0  9991,2 51799  53.2144 193.1348 0003251  40.0144 320.1087 15.08836471 47572,6917.891,95.438,542.005,537.507,0.0
51799.0,STARLINK-3637,PAYLOAD,2022-12-28 12:57:16,15.08841483,0.000321,53.2136,188.6734,42.4064,317.7176,0.00010051,1.311e-05,0.0,0 STARLINK-3637,1 51799U 22017AH  22362.53977662  .00001311  00000-0  10051-3 0  9999,2 51799  53.2136 188.6734 0003210  42.4064 317.7176 15.08841483 47720,6917.876,95.437,541.961,537.52,0.0
51799.0,STARLINK-3637,PAYLOAD,2022-12-29 12:48:04,15.08836413,0.0003229,53.2134,184.2117,46.0108,314.115,8.3267e-05,1.037e-05,0.0,0 STARLINK-3637,1 51799U 22017AH  22363.53338043  .00001037  00000-0  83267-4 0  9999,2 51799  53.2134 184.2117 0003229  46.0108 314.1150 15.08836413 47870,6917.891,95.438,541.99,537.523,0.0
51799.0,STARLINK-3637,PAYLOAD,2022-12-29 22:20:23,15.08832358,0.0003338,53.2141,182.429,44.8025,315.3236,3.3369e-05,2.42e-06,0.0,0 STARLINK-3637,1 51799U 22017AH  22363.93082658  .00000242  00000-0  33369-4 0  9996,2 51799  53.2141 182.4290 0003338  44.8025 315.3236 15.08832358 47934,6917.904,95.438,542.078,537.46,0.0
51799.0,STARLINK-3637,PAYLOAD,2022-12-30 12:38:51,15.0883882,0.0003328999999999,53.214,179.7522,44.6936,315.4323,2.8511e-05,1.65e-06,0.0,0 STARLINK-3637,1 51799U 22017AH  22364.52698398  .00000165  00000-0  28511-4 0  9993,2 51799  53.2140 179.7522 0003329  44.6936 315.4323 15.08838820 48028,6917.884,95.438,542.052,537.446,0.0
51799.0,STARLINK-3637,PAYLOAD,2022-12-30 17:25:00,15.08840564,0.0003324,53.2143,178.8602,45.1961,314.9301,3.6912e-05,2.99e-06,0.0,0 STARLINK-3637,1 51799U 22017AH  22364.72570258  .00000299  00000-0  36912-4 0  9991,2 51799  53.2143 178.8602 0003324  45.1961 314.9301 15.08840564 48050,6917.879,95.438,542.043,537.444,0.0
51799.0,STARLINK-3637,PAYLOAD,2022-12-31 10:54:14,15.08844208,0.0003328999999999,53.2148,175.5891,45.2522,314.8741,0.00014946,2.091e-05,0.0,0 STARLINK-3637,1 51799U 22017AH  22365.45433771  .00002091  00000-0  14946-3 0  9994,2 51799  53.2148 175.5891 0003329  45.2522 314.8741 15.08844208 48166,6917.868,95.437,542.035,537.43,0.0
51799.0,STARLINK-3637,PAYLOAD,2022-12-31 17:15:47,15.08845669,0.0003346,53.2147,174.3996,45.8004,314.3263,0.00020423,2.964e-05,0.0,0 STARLINK-3637,1 51799U 22017AH  22365.71929642  .00002964  00000-0  20423-3 0  9996,2 51799  53.2147 174.3996 0003346  45.8004 314.3263 15.08845669 48209,6917.863,95.437,542.043,537.413,0.0
51799.0,STARLINK-3637,PAYLOAD,2022-12-31 20:26:33,15.08849886,0.0003399999999999,53.2139,173.8049,46.0642,314.063,0.00025873,3.833e-05,0.0,0 STARLINK-3637,1 51799U 22017AH  22365.85177559  .00003833  00000-0  25873-3 0  9993,2 51799  53.2139 173.8049 0003400  46.0642 314.0630 15.08849886 48227,6917.85,95.437,542.067,537.363,0.0
51799.0,STARLINK-3637,PAYLOAD,2023-01-01 04:23:29,15.0884676,0.0003424,53.214,172.3181,46.1384,313.9891,0.00016866,2.397e-05,0.0,0 STARLINK-3637,1 51799U 22017AH  23001.18297642  .00002397  00000-0  16866-3 0  9999,2 51799  53.2140 172.3181 0003424  46.1384 313.9891 15.08846760 48270,6917.86,95.437,542.0930000000002,537.356,0.0
51799.0,STARLINK-3637,PAYLOAD,2023-01-01 15:31:11,15.0884164,0.0003427,53.2135,170.236,47.1214,313.0066,7.2442e-05,8.64e-06,0.0,0 STARLINK-3637,1 51799U 22017AH  23001.64665807  .00000864  00000-0  72442-4 0  9992,2 51799  53.2135 170.2360 0003427  47.1214 313.0066 15.08841640 48341,6917.875,95.437,542.111,537.37,0.0
51799.0,STARLINK-3637,PAYLOAD,2023-01-01 17:06:34,15.08843981,0.0003438,53.2136,169.9386,47.3833,312.7449,6.0937e-05,6.81e-06,0.0,0 STARLINK-3637,1 51799U 22017AH  23001.71289670  .00000681  00000-0  60937-4 0  9993,2 51799  53.2136 169.9386 0003438  47.3833 312.7449 15.08843981 48358,6917.868,95.437,542.112,537.355,0.0
51799.0,STARLINK-3637,PAYLOAD,2023-01-02 05:49:38,15.08850374,0.0003403,53.2136,167.5602,47.5196,312.6084,0.0001075,1.423e-05,0.0,0 STARLINK-3637,1 51799U 22017AH  23002.24281103  .00001423  00000-0  10750-3 0  9997,2 51799  53.2136 167.5602 0003403  47.5196 312.6084 15.08850374 48436,6917.849,95.437,542.068,537.36,0.0
51799.0,STARLINK-3637,PAYLOAD,2023-01-02 13:46:34,15.08838667,0.0003305,53.2134,166.0717,48.9155,311.2122,-7.998699999999999e-05,-1.562e-05,0.0,0 STARLINK-3637,1 51799U 22017AH  23002.57401601 -.00001562  00000-0 -79987-4 0  9994,2 51799  53.2134 166.0717 0003305  48.9155 311.2122 15.08838667 48480,6917.884,95.438,542.036,537.4630000000002,0.0
51799.0,STARLINK-3637,PAYLOAD,2023-01-02 16:57:21,15.08838967,0.0003326,53.2147,165.4776,48.9742,311.1537,-2.1766e-05,-6.35e-06,0.0,0 STARLINK-3637,1 51799U 22017AH  23002.70650093 -.00000635  00000-0 -21766-4 0  9992,2 51799  53.2147 165.4776 0003326  48.9742 311.1537 15.08838967 48502,6917.884,95.438,542.049,537.448,0.0
